NORAD_CAT_ID,OBJECT_NAME,OBJECT_TYPE,EPOCH,MEAN_MOTION,ECCENTRICITY,INCLINATION,RA_OF_ASC_NODE,ARG_OF_PERICENTER,MEAN_ANOMALY,BSTAR,MEAN_MOTION_DOT,MEAN_MOTION_DDOT,TLE_LINE0,TLE_LINE1,TLE_LINE2,SEMIMAJOR_AXIS,PERIOD,APOGEE,PERIGEE,DECAYED
52264.0,STARLINK-3795,PAYLOAD,2023-07-27 22:19:34,15.08831884,0.0001201,53.2182,79.6903,101.1866,258.9262,-3.5906e-05,-8.59e-06,0.0,0 STARLINK-3795,1 52264U 22041D   23208.93026115 -.00000859  00000-0 -35906-4 0  9991,2 52264  53.2182  79.6903 0001201 101.1866 258.9262 15.08831884 70077,6917.905,95.438,540.601,538.939,0.0
52264.0,STARLINK-3795,PAYLOAD,2023-07-28 01:30:20,15.08832945,0.0001058,53.2176,79.095,99.6553,260.4558,-3.1953e-05,-7.96e-06,0.0,0 STARLINK-3795,1 52264U 22041D   23209.06274071 -.00000796  00000-0 -31953-4 0  9990,2 52264  53.2176  79.0950 0001058  99.6553 260.4558 15.08832945 70097,6917.902,95.438,540.499,539.035,0.0
52264.0,STARLINK-3795,PAYLOAD,2023-07-28 17:24:11,15.08851501,7.81e-05,53.2168,76.1219,102.1036,258.0044,-0.0001831,-3.201e-05,0.0,0 STARLINK-3795,1 52264U 22041D   23209.72513762 -.00003201  00000-0 -18310-3 0  9991,2 52264  53.2168  76.1219 0000781 102.1036 258.0044 15.08851501 71400,6917.845,95.437,540.251,539.17,0.0
52264.0,STARLINK-3795,PAYLOAD,2023-07-29 18:50:22,15.08840642,0.0001115,53.2183,71.3656,106.0164,254.0951,0.00021787,3.181e-05,0.0,0 STARLINK-3795,1 52264U 22041D   23210.78497829  .00003181  00000-0  21787-3 0  9991,2 52264  53.2183  71.3656 0001115 106.0164 254.0951 15.08840642 71560,6917.878,95.438,540.515,538.972,0.0
52264.0,STARLINK-3795,PAYLOAD,2023-07-30 01:11:54,15.08848325,0.0001027,53.2174,70.1753,99.7466,260.3642,0.00027922,4.16e-05,0.0,0 STARLINK-3795,1 52264U 22041D   23211.04993260  .00004160  00000-0  27922-3 0  9996,2 52264  53.2174  70.1753 0001027  99.7466 260.3642 15.08848325 71608,6917.855,95.437,540.43,539.009,0.0
52264.0,STARLINK-3795,PAYLOAD,2023-07-30 18:41:09,15.08839816,0.0001103,53.2189,66.9072,105.6467,254.4647,-4.6437e-06,-3.62e-06,0.0,0 STARLINK-3795,1 52264U 22041D   23211.77857711 -.00000362  00000-0 -46437-5 0  9992,2 52264  53.2189  66.9072 0001103 105.6467 254.4647 15.08839816 71710,6917.881,95.438,540.509,538.983,0.0
52264.0,STARLINK-3795,PAYLOAD,2023-07-31 21:42:42,15.08846658,8.89e-05,53.2164,61.849,98.4644,261.6449,8.5474e-05,1.073e-05,0.0,0 STARLINK-3795,1 52264U 22041D   23212.90465385  .00001073  00000-0  85474-4 0  9991,2 52264  53.2164  61.8490 0000889  98.4644 261.6449 15.08846658 71887,6917.86,95.437,540.34,539.11,0.0
52264.0,STARLINK-3795,PAYLOAD,2023-08-01 18:22:43,15.08840664,8.64e-05,53.2163,57.9825,94.3103,265.7988,9.3071e-05,1.194e-05,0.0,0 STARLINK-3795,1 52264U 22041D   23213.76578001  .00001194  00000-0  93071-4 0  9992,2 52264  53.2163  57.9825 0000864  94.3103 265.7988 15.08840664 72012,6917.878,95.438,540.341,539.146,0.0
52264.0,STARLINK-3795,PAYLOAD,2023-08-02 22:59:39,15.08856706,8.46e-05,53.2164,52.6295,94.8614,265.2475,0.00028689,4.283e-05,0.0,0 STARLINK-3795,1 52264U 22041D   23214.95809192  .00004283  00000-0  28689-3 0  9996,2 52264  53.2164  52.6295 0000846  94.8614 265.2475 15.08856706 72197,6917.829,95.436,540.28,539.109,0.0
52264.0,STARLINK-3795,PAYLOAD,2023-08-03 16:28:54,15.08837581,0.0001109,53.2168,49.3586,92.5666,267.5453,-3.6269e-05,-8.65e-06,0.0,0 STARLINK-3795,1 52264U 22041D   23215.68674041 -.00000865  00000-0 -36269-4 0  9998,2 52264  53.2168  49.3586 0001109  92.5666 267.5453 15.08837581 72306,6917.888,95.438,540.52,538.986,0.0
52264.0,STARLINK-3795,PAYLOAD,2023-08-04 17:55:04,15.08837331,0.0001016,53.2176,44.6016,88.199,271.9119,6.2453e-05,7.06e-06,0.0,0 STARLINK-3795,1 52264U 22041D   23216.74658405  .00000706  00000-0  62453-4 0  9998,2 52264  53.2176  44.6016 0001016  88.1990 271.9119 15.08837331 72467,6917.889,95.438,540.456,539.051,0.0
52264.0,STARLINK-3795,PAYLOAD,2023-08-05 00:16:36,15.08847151,0.0001004,53.2173,43.4116,86.9198,273.1909,0.00015591,2.195e-05,0.0,0 STARLINK-3795,1 52264U 22041D   23217.01153925  .00002195  00000-0  15591-3 0  9990,2 52264  53.2173  43.4116 0001004  86.9198 273.1909 15.08847151 72502,6917.859,95.437,540.418,539.029,0.0
52264.0,STARLINK-3795,PAYLOAD,2023-08-05 11:24:19,15.08839716,9.31e-05,53.2172,41.3301,94.9869,265.123,0.00015087,2.114e-05,0.0,0 STARLINK-3795,1 52264U 22041D   23217.47522236  .00002114  00000-0  15087-3 0  9996,2 52264  53.2172  41.3301 0000931  94.9869 265.1230 15.08839716 72579,6917.881,95.438,540.39,539.102,0.0
52264.0,STARLINK-3795,PAYLOAD,2023-08-05 19:21:14,15.08854108,0.0001067,53.2181,39.8441,86.3378,273.7736,0.00029761,4.454e-05,0.0,0 STARLINK-3795,1 52264U 22041D   23217.80641495  .00004454  00000-0  29761-3 0  9995,2 52264  53.2181  39.8441 0001067  86.3378 273.7736 15.08854108 72621,6917.837,95.437,540.44,538.964,0.0
52264.0,STARLINK-3795,PAYLOAD,2023-08-06 11:15:06,15.08828873,9.55e-05,53.2173,36.8695,108.8475,251.262,-3.5586e-05,-8.54e-06,0.0,0 STARLINK-3795,1 52264U 22041D   23218.46882863 -.00000854  00000-0 -35586-4 0  9999,2 52264  53.2173  36.8695 0000955 108.8475 251.2620 15.08828873 72727,6917.914,95.438,540.44,539.119,0.0
52264.0,STARLINK-3795,PAYLOAD,2023-08-06 20:47:26,15.08825678,8.47e-05,53.218,35.0852,103.8015,256.3071,-5.6925e-05,-1.193e-05,0.0,0 STARLINK-3795,1 52264U 22041D   23218.86628089 -.00001193  00000-0 -56925-4 0  9998,2 52264  53.2180  35.0852 0000847 103.8015 256.3071 15.08825678 72788,6917.924,95.438,540.375,539.203,0.0
52264.0,STARLINK-3795,PAYLOAD,2023-08-07 04:44:22,15.08831625,8.35e-05,53.2183,33.5982,94.3829,265.7259,-1.3727e-05,-5.06e-06,0.0,0 STARLINK-3795,1 52264U 22041D   23219.19747855 -.00000506  00000-0 -13727-4 0  9998,2 52264  53.2183  33.5982 0000835  94.3829 265.7259 15.08831625 72839,6917.906,95.438,540.349,539.193,0.0
52264.0,STARLINK-3795,PAYLOAD,2023-08-07 19:02:49,15.08848552,8.43e-05,53.2182,30.9217,101.4996,258.6091,5.678e-05,6.16e-06,0.0,0 STARLINK-3795,1 52264U 22041D   23219.79362855  .00000616  00000-0  56780-4 0  9993,2 52264  53.2182  30.9217 0000843 101.4996 258.6091 15.08848552 72926,6917.854,95.437,540.302,539.136,0.0
52264.0,STARLINK-3795,PAYLOAD,2023-08-08 10:56:41,15.08841182,7.24e-05,53.2173,27.9478,94.785,265.3224,0.00038789,5.891e-05,0.0,0 STARLINK-3795,1 52264U 22041D   23220.45603616  .00005891  00000-0  38789-3 0  9999,2 52264  53.2173  27.9478 0000724  94.7850 265.3224 15.08841182 73029,6917.877,95.437,540.243,539.241,0.0
52264.0,STARLINK-3795,PAYLOAD,2023-08-08 20:28:59,15.08861879,7.35e-05,53.2168,26.1642,91.6072,268.5005,0.00067834,0.00010531,0.0,0 STARLINK-3795,1 52264U 22041D   23220.85346931  .00010531  00000-0  67834-3 0  9997,2 52264  53.2168  26.1642 0000735  91.6072 268.5005 15.08861879 73084,6917.814,95.436,540.187,539.17,0.0
52264.0,STARLINK-3795,PAYLOAD,2023-08-09 04:25:55,15.08846636,0.0001154,53.2165,24.6779,74.1543,285.9576,0.00013058,1.791e-05,0.0,0 STARLINK-3795,1 52264U 22041D   23221.18467209  .00001791  00000-0  13058-3 0  9993,2 52264  53.2165  24.6779 0001154  74.1543 285.9576 15.08846636 73136,6917.86,95.437,540.523,538.927,0.0
52264.0,STARLINK-3795,PAYLOAD,2023-08-10 04:16:42,15.08842211,8.92e-05,53.2165,20.2181,62.7212,297.3871,0.00014494,2.02e-05,0.0,0 STARLINK-3795,1 52264U 22041D   23222.17827198  .00002020  00000-0  14494-3 0  9991,2 52264  53.2165  20.2181 0000892  62.7212 297.3871 15.08842211 73285,6917.874,95.437,540.356,539.122,0.0
52264.0,STARLINK-3795,PAYLOAD,2023-08-11 10:29:02,15.08844843,0.0001173,53.2153,14.5677,77.6416,282.4708,0.00017773,2.542e-05,0.0,0 STARLINK-3795,1 52264U 22041D   23223.43683032  .00002542  00000-0  17773-3 0  9990,2 52264  53.2153  14.5677 0001173  77.6416 282.4708 15.08844843 73470,6917.866,95.437,540.542,538.919,0.0
52264.0,STARLINK-3795,PAYLOAD,2023-08-11 21:36:43,15.08856987,8.05e-05,53.2176,12.4865,55.5816,304.5252,0.00063244,9.796e-05,0.0,0 STARLINK-3795,1 52264U 22041D   23223.90050498  .00009796  00000-0  63244-3 0  9998,2 52264  53.2176  12.4865 0000805  55.5816 304.5252 15.08856987 73541,6917.828,95.436,540.25,539.137,0.0
52264.0,STARLINK-3795,PAYLOAD,2023-08-12 10:19:49,15.08839404,6.89e-05,53.218,10.1054,79.0391,281.0678,3.9568e-05,3.42e-06,0.0,0 STARLINK-3795,1 52264U 22041D   23224.43042893  .00000342  00000-0  39568-4 0  9998,2 52264  53.2180  10.1054 0000689  79.0391 281.0678 15.08839404 73625,6917.882,95.438,540.224,539.271,0.0
52264.0,STARLINK-3795,PAYLOAD,2023-08-12 19:52:07,15.08854916,7.49e-05,53.2174,8.3225,73.6923,286.4152,0.00086393,0.00013494,0.0,0 STARLINK-3795,1 52264U 22041D   23224.82786668  .00013494  00000-0  86393-3 0  9995,2 52264  53.2174   8.3225 0000749  73.6923 286.4152 15.08854916 73682,6917.835,95.437,540.218,539.182,0.0
52264.0,STARLINK-3795,PAYLOAD,2023-08-13 10:10:36,15.08839294,0.0001857,53.2191,5.6487,52.4068,307.7093,0.00026281,3.897e-05,0.0,0 STARLINK-3795,1 52264U 22041D   23225.42403357  .00003897  00000-0  26281-3 0  9999,2 52264  53.2191   5.6487 0001857  52.4068 307.7093 15.08839294 73770,6917.883,95.438,541.032,538.463,0.0
52264.0,STARLINK-3795,PAYLOAD,2023-08-15 01:55:14,15.0883769,3.53e-05,53.2181,358.2122,131.4036,228.6987,-0.00014736,-2.632e-05,0.0,0 STARLINK-3795,1 52264U 22041D   23227.08002832 -.00002632  00000-0 -14736-3 0  9996,2 52264  53.2181 358.2122 0000353 131.4036 228.6987 15.08837690 74025,6917.887,95.438,539.997,539.508,0.0
52264.0,STARLINK-3795,PAYLOAD,2023-08-15 17:49:05,15.08848075,5.16e-05,53.2183,355.2389,105.3131,254.7918,0.00066206,0.00010267,0.0,0 STARLINK-3795,1 52264U 22041D   23227.74242848  .00010267  00000-0  66206-3 0  9992,2 52264  53.2183 355.2389 0000516 105.3131 254.7918 15.08848075 74120,6917.856,95.437,540.078,539.364,0.0
52264.0,STARLINK-3795,PAYLOAD,2023-08-16 01:46:01,15.08839285,3.29e-05,53.2187,353.7524,256.1431,103.9525,-0.00026067,-4.433e-05,0.0,0 STARLINK-3795,1 52264U 22041D   23228.07362614 -.00004433  00000-0 -26067-3 0  9994,2 52264  53.2187 353.7524 0000329 256.1431 103.9525 15.08839285 74175,6917.883,95.438,539.975,539.52,0.0
